start=new Date('2022-01-27T00:00:00.000Z').valueOf();
sats=[{"TLE_LINE1":"1 45102U 20006BL  22026.57336152  .00000050  00000-0  22247-4 0  9990","RCS_SIZE":"LARGE","ARG_OF_PERICENTER":"84.5153","INCLINATION":"53.0550","SITE":"AFETR","APOAPSIS":"548.317","TLE_LINE2":"2 45102  53.0550 154.3840 0001561  84.5153 275.6014 15.06392591110464","ECCENTRICITY":"0.00015610","NORAD_CAT_ID":"45102","PERIAPSIS":"546.155","MEAN_ANOMALY":"275.6014","SEMIMAJOR_AXIS":"6925.371","EPHEMERIS_TYPE":"0","MEAN_ELEMENT_THEORY":"SGP4","GP_ID":"194678361","REF_FRAME":"TEME","DECAY_DATE":null,"LAUNCH_DATE":"2020-01-29","MEAN_MOTION":"15.06392591","FILE":"3284266","TIME_SYSTEM":"UTC","CENTER_NAME":"EARTH","RA_OF_ASC_NODE":"154.3840","OBJECT_NAME":"STARLINK-1195","MEAN_MOTION_DDOT":"0.0000000000000","BSTAR":"0.00002224700000","OBJECT_TYPE":"PAYLOAD","EPOCH":"2022-01-26T13:45:38.435328","PERIOD":"95.593","REV_AT_EPOCH":"11046","COUNTRY_CODE":"US","MEAN_MOTION_DOT":"0.00000050","OBJECT_ID":"2020-006BL","CLASSIFICATION_TYPE":"U","ELEMENT_SET_NO":"999"},{"ARG_OF_PERICENTER":"84.5796","INCLINATION":"53.0545","SITE":"AFETR","APOAPSIS":"548.151","TLE_LINE2":"2 45103  53.0545 154.2994 0001339  84.5796 275.5346 15.06396631110471","ECCENTRICITY":"0.00013390","TLE_LINE1":"1 45103U 20006BM  22026.60560215  .00000835  00000-0  74950-4 0  9993","RCS_SIZE":"LARGE","PERIAPSIS":"546.297","MEAN_ANOMALY":"275.5346","EPHEMERIS_TYPE":"0","SEMIMAJOR_AXIS":"6925.359","NORAD_CAT_ID":"45103","LAUNCH_DATE":"2020-01-29","MEAN_MOTION":"15.06396631","FILE":"3284266","TIME_SYSTEM":"UTC","CENTER_NAME":"EARTH","RA_OF_ASC_NODE":"154.2994","MEAN_MOTION_DDOT":"0.0000000000000","OBJECT_NAME":"STARLINK-1196","MEAN_ELEMENT_THEORY":"SGP4","GP_ID":"194678611","REF_FRAME":"TEME","DECAY_DATE":null,"COUNTRY_CODE":"US","MEAN_MOTION_DOT":"0.00000835","OBJECT_ID":"2020-006BM","ELEMENT_SET_NO":"999","CLASSIFICATION_TYPE":"U","OBJECT_TYPE":"PAYLOAD","BSTAR":"0.00007495000000","EPOCH":"2022-01-26T14:32:04.025760","PERIOD":"95.592","REV_AT_EPOCH":"11047"},{"RCS_SIZE":"LARGE","TLE_LINE1":"1 45178U 20012A   22026.52545109  .00000739  00000-0  68477-4 0  9998","SITE":"AFETR","INCLINATION":"53.0551","APOAPSIS":"548.263","ARG_OF_PERICENTER":"69.8512","TLE_LINE2":"2 45178  53.0551 314.5763 0001529  69.8512 290.2642 15.06403210108212","ECCENTRICITY":"0.00015290","NORAD_CAT_ID":"45178","PERIAPSIS":"546.145","MEAN_ANOMALY":"290.2642","EPHEMERIS_TYPE":"0","SEMIMAJOR_AXIS":"6925.339","GP_ID":"194677617","MEAN_ELEMENT_THEORY":"SGP4","REF_FRAME":"TEME","DECAY_DATE":null,"FILE":"3284266","MEAN_MOTION":"15.06403210","TIME_SYSTEM":"UTC","LAUNCH_DATE":"2020-02-17","MEAN_MOTION_DDOT":"0.0000000000000","OBJECT_NAME":"STARLINK-1138","CENTER_NAME":"EARTH","RA_OF_ASC_NODE":"314.5763","OBJECT_TYPE":"PAYLOAD","BSTAR":"0.00006847700000","EPOCH":"2022-01-26T12:36:38.974176","PERIOD":"95.592","REV_AT_EPOCH":"10821","OBJECT_ID":"2020-012A","COUNTRY_CODE":"US","MEAN_MOTION_DOT":"0.00000739","ELEMENT_SET_NO":"999","CLASSIFICATION_TYPE":"U"},{"RA_OF_ASC_NODE":"314.5711","CENTER_NAME":"EARTH","OBJECT_NAME":"STARLINK-1143","MEAN_MOTION_DDOT":"0.0000000000000","LAUNCH_DATE":"2020-02-17","MEAN_MOTION":"15.06402923","FILE":"3284266","TIME_SYSTEM":"UTC","REF_FRAME":"TEME","DECAY_DATE":null,"MEAN_ELEMENT_THEORY":"SGP4","GP_ID":"194678868","ELEMENT_SET_NO":"999","CLASSIFICATION_TYPE":"U","COUNTRY_CODE":"US","MEAN_MOTION_DOT":"0.00000277","OBJECT_ID":"2020-012B","REV_AT_EPOCH":"10827","EPOCH":"2022-01-26T12:41:57.808320","PERIOD":"95.592","BSTAR":"0.00003748300000","OBJECT_TYPE":"PAYLOAD","ECCENTRICITY":"0.00016480","TLE_LINE2":"2 45179  53.0536 314.5711 0001648  59.1244 300.9907 15.06402923108274","ARG_OF_PERICENTER":"59.1244","APOAPSIS":"548.346","INCLINATION":"53.0536","SITE":"AFETR","TLE_LINE1":"1 45179U 20012B   22026.52914130  .00000277  00000-0  37483-4 0  9993","RCS_SIZE":"LARGE","SEMIMAJOR_AXIS":"6925.340","EPHEMERIS_TYPE":"0","MEAN_ANOMALY":"300.9907","PERIAPSIS":"546.063","NORAD_CAT_ID":"45179"},{"NORAD_CAT_ID":"45180","PERIAPSIS":"545.960","MEAN_ANOMALY":"294.0647","SEMIMAJOR_AXIS":"6925.357","EPHEMERIS_TYPE":"0","RCS_SIZE":"LARGE","TLE_LINE1":"1 45180U 20012C   22026.78621107  .00000314  00000-0  39972-4 0  9999","INCLINATION":"53.0516","SITE":"AFETR","APOAPSIS":"548.484","ARG_OF_PERICENTER":"66.0533","TLE_LINE2":"2 45180  53.0516 313.4118 0001822  66.0533 294.0647 15.06397296107667","ECCENTRICITY":"0.00018220","OBJECT_TYPE":"PAYLOAD","BSTAR":"0.00003997200000","PERIOD":"95.592","EPOCH":"2022-01-26T18:52:08.636448","REV_AT_EPOCH":"10766","OBJECT_ID":"2020-012C","COUNTRY_CODE":"US","MEAN_MOTION_DOT":"0.00000314","ELEMENT_SET_NO":"999","CLASSIFICATION_TYPE":"U","GP_ID":"194686287","MEAN_ELEMENT_THEORY":"SGP4","REF_FRAME":"TEME","DECAY_DATE":null,"FILE":"3284422","MEAN_MOTION":"15.06397296","TIME_SYSTEM":"UTC","LAUNCH_DATE":"2020-02-17","OBJECT_NAME":"STARLINK-1192","MEAN_MOTION_DDOT":"0.0000000000000","CENTER_NAME":"EARTH","RA_OF_ASC_NODE":"313.4118"},{"APOAPSIS":"548.502","SITE":"AFETR","INCLINATION":"53.0539","ARG_OF_PERICENTER":"62.3267","ECCENTRICITY":"0.00018960","TLE_LINE2":"2 45181  53.0539 313.4330 0001896  62.3267 297.7915 15.06408033107663","RCS_SIZE":"LARGE","TLE_LINE1":"1 45181U 20012D   22026.77977890  .00004474  00000-0  31898-3 0  9991","PERIAPSIS":"545.876","SEMIMAJOR_AXIS":"6925.324","EPHEMERIS_TYPE":"0","MEAN_ANOMALY":"297.7915","NORAD_CAT_ID":"45181","FILE":"3284413","MEAN_MOTION":"15.06408033","TIME_SYSTEM":"UTC","LAUNCH_DATE":"2020-02-17","OBJECT_NAME":"STARLINK-1200","MEAN_MOTION_DDOT":"0.0000000000000","RA_OF_ASC_NODE":"313.4330","CENTER_NAME":"EARTH","GP_ID":"194686793","MEAN_ELEMENT_THEORY":"SGP4","DECAY_DATE":null,"REF_FRAME":"TEME","OBJECT_ID":"2020-012D","COUNTRY_CODE":"US","MEAN_MOTION_DOT":"0.00004474","ELEMENT_SET_NO":"999","CLASSIFICATION_TYPE":"U","BSTAR":"0.00031898000000","OBJECT_TYPE":"PAYLOAD","REV_AT_EPOCH":"10766","EPOCH":"2022-01-26T18:42:52.896960","PERIOD":"95.592"},{"EPOCH":"2022-01-26T17:36:32.880096","PERIOD":"95.592","REV_AT_EPOCH":"10794","OBJECT_TYPE":"PAYLOAD","BSTAR":"0.00004815600000","CLASSIFICATION_TYPE":"U","ELEMENT_SET_NO":"999","OBJECT_ID":"2020-012E","MEAN_MOTION_DOT":"0.00000436","COUNTRY_CODE":"US","REF_FRAME":"TEME","DECAY_DATE":null,"GP_ID":"194686297","MEAN_ELEMENT_THEORY":"SGP4","MEAN_MOTION_DDOT":"0.0000000000000","OBJECT_NAME":"STARLINK-1201","CENTER_NAME":"EARTH","RA_OF_ASC_NODE":"293.6627","FILE":"3284413","TIME_SYSTEM":"UTC","MEAN_MOTION":"15.06397028","LAUNCH_DATE":"2020-02-17","NORAD_CAT_ID":"45182","MEAN_ANOMALY":"292.2307","SEMIMAJOR_AXIS":"6925.358","EPHEMERIS_TYPE":"0","PERIAPSIS":"546.175","RCS_SIZE":"LARGE","TLE_LINE1":"1 45182U 20012E   22026.73371389  .00000436  00000-0  48156-4 0  9999","TLE_LINE2":"2 45182  53.0554 293.6627 0001513  67.8842 292.2307 15.06397028107941","ECCENTRICITY":"0.00015130","INCLINATION":"53.0554","SITE":"AFETR","APOAPSIS":"548.270","ARG_OF_PERICENTER":"67.8842"},{"ARG_OF_PERICENTER":"69.1839","APOAPSIS":"548.505","SITE":"AFETR","INCLINATION":"53.0558","ECCENTRICITY":"0.00018610","TLE_LINE2":"2 45183  53.0558 314.7687 0001861  69.1839 290.9349 15.06399121108278","TLE_LINE1":"1 45183U 20012F   22026.48491370 -.00000322  00000-0 -27216-5 0  9996","RCS_SIZE":"LARGE","PERIAPSIS":"545.927","SEMIMAJOR_AXIS":"6925.351","EPHEMERIS_TYPE":"0","MEAN_ANOMALY":"290.9349","NORAD_CAT_ID":"45183","LAUNCH_DATE":"2020-02-17","MEAN_MOTION":"15.06399121","FILE":"3284266","TIME_SYSTEM":"UTC","RA_OF_ASC_NODE":"314.7687","CENTER_NAME":"EARTH","MEAN_MOTION_DDOT":"0.0000000000000","OBJECT_NAME":"STARLINK-1202","MEAN_ELEMENT_THEORY":"SGP4","GP_ID":"194678369","DECAY_DATE":null,"REF_FRAME":"TEME","MEAN_MOTION_DOT":"-0.00000322","COUNTRY_CODE":"US","OBJECT_ID":"2020-012F","CLASSIFICATION_TYPE":"U","ELEMENT_SET_NO":"999","BSTAR":"-0.00000272160000","OBJECT_TYPE":"PAYLOAD","REV_AT_EPOCH":"10827","PERIOD":"95.592","EPOCH":"2022-01-26T11:38:16.543680"},{"OBJECT_ID":"2020-012G","MEAN_MOTION_DOT":"0.00002846","COUNTRY_CODE":"US","CLASSIFICATION_TYPE":"U","ELEMENT_SET_NO":"999","BSTAR":"0.00020989000000","OBJECT_TYPE":"PAYLOAD","REV_AT_EPOCH":"10791","PERIOD":"95.592","EPOCH":"2022-01-26T17:47:09.279168","TIME_SYSTEM":"UTC","FILE":"3284354","MEAN_MOTION":"15.06395774","LAUNCH_DATE":"2020-02-17","OBJECT_NAME":"STARLINK-1205","MEAN_MOTION_DDOT":"0.0000000000000","RA_OF_ASC_NODE":"293.6078","CENTER_NAME":"EARTH","GP_ID":"194684805","MEAN_ELEMENT_THEORY":"SGP4","REF_FRAME":"TEME","DECAY_DATE":null,"PERIAPSIS":"545.955","EPHEMERIS_TYPE":"0","SEMIMAJOR_AXIS":"6925.362","MEAN_ANOMALY":"301.2786","NORAD_CAT_ID":"45184","APOAPSIS":"548.498","SITE":"AFETR","INCLINATION":"53.0542","ARG_OF_PERICENTER":"58.8383","ECCENTRICITY":"0.00018360","TLE_LINE2":"2 45184  53.0542 293.6078 0001836  58.8383 301.2786 15.06395774107913","RCS_SIZE":"LARGE","TLE_LINE1":"1 45184U 20012G   22026.74107962  .00002846  00000-0  20989-3 0  9996"},{"OBJECT_ID":"2020-012H","COUNTRY_CODE":"US","MEAN_MOTION_DOT":"-0.00004780","CLASSIFICATION_TYPE":"U","ELEMENT_SET_NO":"999","BSTAR":"-0.00030213000000","OBJECT_TYPE":"PAYLOAD","REV_AT_EPOCH":"10818","PERIOD":"95.592","EPOCH":"2022-01-26T06:41:03.026400","MEAN_MOTION":"15.06406098","FILE":"3284266","TIME_SYSTEM":"UTC","LAUNCH_DATE":"2020-02-17","MEAN_MOTION_DDOT":"0.0000000000000","OBJECT_NAME":"STARLINK-1216","RA_OF_ASC_NODE":"315.6940","CENTER_NAME":"EARTH","GP_ID":"194677867","MEAN_ELEMENT_THEORY":"SGP4","REF_FRAME":"TEME","DECAY_DATE":null,"PERIAPSIS":"545.978","SEMIMAJOR_AXIS":"6925.330","EPHEMERIS_TYPE":"0","MEAN_ANOMALY":"301.1764","NORAD_CAT_ID":"45185","APOAPSIS":"548.412","SITE":"AFETR","INCLINATION":"53.0555","ARG_OF_PERICENTER":"58.9398","ECCENTRICITY":"0.00017570","TLE_LINE2":"2 45185  53.0555 315.6940 0001757  58.9398 301.1764 15.06406098108187","RCS_SIZE":"LARGE","TLE_LINE1":"1 45185U 20012H   22026.27850725 -.00004780  00000-0 -30213-3 0  9999"}];
